[
    {
        "Altitude(m)": 555226.4023946953,
        "Argument of Periapsis(deg)": 0.013245982221427002,
        "Eccentricity": 0.0,
        "Inclination(deg)": 53.0,
        "Latitude(deg)": 31.124346521745355,
        "Longitude(deg)": -74.67117278883374,
        "Mean Anomaly(deg)": 40.18318573515517,
        "RAAN(deg)": -0.019713262943966355,
        "Satellite Name": "Starlink Shell 1 1",
        "Satellite Number": 1,
        "Semi-Major Axis(m)": 6931778.249405717,
        "Time(s)": 380
    },
    {
        "Altitude(m)": 555302.5821727476,
        "Argument of Periapsis(deg)": 0.013594560700938237,
        "Eccentricity": 0.0,
        "Inclination(deg)": 53.0,
        "Latitude(deg)": 31.571659128284725,
        "Longitude(deg)": -74.19686152825216,
        "Mean Anomaly(deg)": 40.81001693871189,
        "RAAN(deg)": -0.020232033021439152,
        "Satellite Name": "Starlink Shell 1 1",
        "Satellite Number": 1,
        "Semi-Major Axis(m)": 6931778.249405717,
        "Time(s)": 390
    },
    {
        "Altitude(m)": 555379.6350176919,
        "Argument of Periapsis(deg)": 0.013943139180449475,
        "Eccentricity": 0.0,
        "Inclination(deg)": 53.0,
        "Latitude(deg)": 32.016840796440384,
        "Longitude(deg)": -73.71762025687039,
        "Mean Anomaly(deg)": 41.4368481422686,
        "RAAN(deg)": -0.020750803098911953,
        "Satellite Name": "Starlink Shell 1 1",
        "Satellite Number": 1,
        "Semi-Major Axis(m)": 6931778.249405717,
        "Time(s)": 400
    },
    {
        "Altitude(m)": 555457.5060903591,
        "Argument of Periapsis(deg)": 0.014291717659960712,
        "Eccentricity": 0.0,
        "Inclination(deg)": 53.0,
        "Latitude(deg)": 32.459834459896314,
        "Longitude(deg)": -73.23333839737262,
        "Mean Anomaly(deg)": 42.06367934582532,
        "RAAN(deg)": -0.02126957317638475,
        "Satellite Name": "Starlink Shell 1 1",
        "Satellite Number": 1,
        "Semi-Major Axis(m)": 6931778.249405717,
        "Time(s)": 410
    },
    {
        "Altitude(m)": 555536.1403393678,
        "Argument of Periapsis(deg)": 0.014640296139471948,
        "Eccentricity": 0.0,
        "Inclination(deg)": 53.0,
        "Latitude(deg)": 32.9005817386563,
        "Longitude(deg)": -72.74390469609695,
        "Mean Anomaly(deg)": 42.69051054938203,
        "RAAN(deg)": -0.02178834325385755,
        "Satellite Name": "Starlink Shell 1 1",
        "Satellite Number": 1,
        "Semi-Major Axis(m)": 6931778.249405717,
        "Time(s)": 420
    },
    {
        "Altitude(m)": 555615.4825298884,
        "Argument of Periapsis(deg)": 0.014988874618983185,
        "Eccentricity": 0.0,
        "Inclination(deg)": 53.0,
        "Latitude(deg)": 33.33902290613635,
        "Longitude(deg)": -72.24920675843534,
        "Mean Anomaly(deg)": 43.31734175293875,
        "RAAN(deg)": -0.022307113331330352,
        "Satellite Name": "Starlink Shell 1 1",
        "Satellite Number": 1,
        "Semi-Major Axis(m)": 6931778.249405717,
        "Time(s)": 430
    },
    {
        "Altitude(m)": 555695.4772724389,
        "Argument of Periapsis(deg)": 0.015337453098494424,
        "Eccentricity": 0.0,
        "Inclination(deg)": 53.0,
        "Latitude(deg)": 33.77509685620108,
        "Longitude(deg)": -71.74913059038288,
        "Mean Anomaly(deg)": 43.944172956495464,
        "RAAN(deg)": -0.02282588340880315,
        "Satellite Name": "Starlink Shell 1 1",
        "Satellite Number": 1,
        "Semi-Major Axis(m)": 6931778.249405717,
        "Time(s)": 440
    },
    {
        "Altitude(m)": 555776.0690517027,
        "Argument of Periapsis(deg)": 0.01568603157800566,
        "Eccentricity": 0.0,
        "Inclination(deg)": 53.0,
        "Latitude(deg)": 34.208741070218494,
        "Longitude(deg)": -71.24356165954352,
        "Mean Anomaly(deg)": 44.57100416005218,
        "RAAN(deg)": -0.023344653486275947,
        "Satellite Name": "Starlink Shell 1 1",
        "Satellite Number": 1,
        "Semi-Major Axis(m)": 6931778.249405717,
        "Time(s)": 450
    },
    {
        "Altitude(m)": 555857.2022554008,
        "Argument of Periapsis(deg)": 0.0160346100575169,
        "Eccentricity": 0.0,
        "Inclination(deg)": 53.0,
        "Latitude(deg)": 34.63989158421726,
        "Longitude(deg)": -70.73238445030573,
        "Mean Anomaly(deg)": 45.197835363608895,
        "RAAN(deg)": -0.023863423563748747,
        "Satellite Name": "Starlink Shell 1 1",
        "Satellite Number": 1,
        "Semi-Major Axis(m)": 6931778.249405717,
        "Time(s)": 460
    },
    {
        "Altitude(m)": 555938.8212031162,
        "Argument of Periapsis(deg)": 0.016383188537028134,
        "Eccentricity": 0.0,
        "Inclination(deg)": 53.0,
        "Latitude(deg)": 35.068482956238,
        "Longitude(deg)": -70.21548202653629,
        "Mean Anomaly(deg)": 45.82466656716561,
        "RAAN(deg)": -0.024382193641221545,
        "Satellite Name": "Starlink Shell 1 1",
        "Satellite Number": 1,
        "Semi-Major Axis(m)": 6931778.249405717,
        "Time(s)": 470
    },
    {
        "Altitude(m)": 556020.8701751329,
        "Argument of Periapsis(deg)": 0.01673176701653937,
        "Eccentricity": 0.0,
        "Inclination(deg)": 53.0,
        "Latitude(deg)": 35.49444823397859,
        "Longitude(deg)": -69.69273711516007,
        "Mean Anomaly(deg)": 46.451497770722334,
        "RAAN(deg)": -0.024900963718694342,
        "Satellite Name": "Starlink Shell 1 1",
        "Satellite Number": 1,
        "Semi-Major Axis(m)": 6931778.249405717,
        "Time(s)": 480
    },
    {
        "Altitude(m)": 556103.2934412558,
        "Argument of Periapsis(deg)": 0.017080345496050607,
        "Eccentricity": 0.0,
        "Inclination(deg)": 53.0,
        "Latitude(deg)": 35.91771892284543,
        "Longitude(deg)": -69.16403168539851,
        "Mean Anomaly(deg)": 47.078328974279046,
        "RAAN(deg)": -0.02541973379616714,
        "Satellite Name": "Starlink Shell 1 1",
        "Satellite Number": 1,
        "Semi-Major Axis(m)": 6931778.249405717,
        "Time(s)": 490
    },
    {
        "Altitude(m)": 556186.0352895663,
        "Argument of Periapsis(deg)": 0.017428923975561842,
        "Eccentricity": 0.0,
        "Inclination(deg)": 53.0,
        "Latitude(deg)": 36.33822495453086,
        "Longitude(deg)": -68.62924653707374,
        "Mean Anomaly(deg)": 47.70516017783576,
        "RAAN(deg)": -0.025938503873639943,
        "Satellite Name": "Starlink Shell 1 1",
        "Satellite Number": 1,
        "Semi-Major Axis(m)": 6931778.249405717,
        "Time(s)": 500
    },
    {
        "Altitude(m)": 556269.0400551303,
        "Argument of Periapsis(deg)": 0.01777750245507308,
        "Eccentricity": 0.0,
        "Inclination(deg)": 53.0,
        "Latitude(deg)": 36.755894656248124,
        "Longitude(deg)": -68.0882624114005,
        "Mean Anomaly(deg)": 48.33199138139247,
        "RAAN(deg)": -0.02645727395111274,
        "Satellite Name": "Starlink Shell 1 1",
        "Satellite Number": 1,
        "Semi-Major Axis(m)": 6931778.249405717,
        "Time(s)": 510
    },
    {
        "Altitude(m)": 556352.2521486569,
        "Argument of Periapsis(deg)": 0.018126080934584315,
        "Eccentricity": 0.0,
        "Inclination(deg)": 53.0,
        "Latitude(deg)": 37.17065472076817,
        "Longitude(deg)": -67.5409595990931,
        "Mean Anomaly(deg)": 48.95882258494919,
        "RAAN(deg)": -0.026976044028585538,
        "Satellite Name": "Starlink Shell 1 1",
        "Satellite Number": 1,
        "Semi-Major Axis(m)": 6931778.249405717,
        "Time(s)": 520
    },
    {
        "Altitude(m)": 556435.6160850417,
        "Argument of Periapsis(deg)": 0.018474659414095554,
        "Eccentricity": 0.0,
        "Inclination(deg)": 53.0,
        "Latitude(deg)": 37.58243017741351,
        "Longitude(deg)": -66.98721755924053,
        "Mean Anomaly(deg)": 49.585653788505915,
        "RAAN(deg)": -0.02749481410605834,
        "Satellite Name": "Starlink Shell 1 1",
        "Satellite Number": 1,
        "Semi-Major Axis(m)": 6931778.249405717,
        "Time(s)": 530
    },
    {
        "Altitude(m)": 556519.0765118309,
        "Argument of Periapsis(deg)": 0.018823237893606792,
        "Eccentricity": 0.0,
        "Inclination(deg)": 53.0,
        "Latitude(deg)": 37.99114436417624,
        "Longitude(deg)": -66.42691606241699,
        "Mean Anomaly(deg)": 50.21248499206262,
        "RAAN(deg)": -0.028013584183531136,
        "Satellite Name": "Starlink Shell 1 1",
        "Satellite Number": 1,
        "Semi-Major Axis(m)": 6931778.249405717,
        "Time(s)": 540
    },
    {
        "Altitude(m)": 556602.5782375813,
        "Argument of Periapsis(deg)": 0.019171816373118027,
        "Eccentricity": 0.0,
        "Inclination(deg)": 53.0,
        "Latitude(deg)": 38.396718901143174,
        "Longitude(deg)": -65.85993483289074,
        "Mean Anomaly(deg)": 50.83931619561933,
        "RAAN(deg)": -0.028532354261003933,
        "Satellite Name": "Starlink Shell 1 1",
        "Satellite Number": 1,
        "Semi-Major Axis(m)": 6931778.249405717,
        "Time(s)": 550
    },
    {
        "Altitude(m)": 556686.0662600759,
        "Argument of Periapsis(deg)": 0.019520394852629266,
        "Eccentricity": 0.0,
        "Inclination(deg)": 53.0,
        "Latitude(deg)": 38.79907366542304,
        "Longitude(deg)": -65.28615320341434,
        "Mean Anomaly(deg)": 51.46614739917605,
        "RAAN(deg)": -0.029051124338476737,
        "Satellite Name": "Starlink Shell 1 1",
        "Satellite Number": 1,
        "Semi-Major Axis(m)": 6931778.249405717,
        "Time(s)": 560
    }
]